{"type": "FeatureCollection", "features": [ {"type": "Feature", "properties": {"norad_id": 54234, "name": "NOAA 21 (JPSS-2)", "group": "weather", "lat": -59.10789544583603, "lon": -48.75117607011096, "alt_km": 833.644620224989, "timestamp": "2025-12-26T04:40:05.430062+00:00", "meta": {"OBJECT_NAME": "NOAA 21 (JPSS-2)", "OBJECT_ID": "2022-150A", "EPOCH": "2025-12-25T22:11:05.599104", "MEAN_MOTION": 14.1952765, "ECCENTRICITY": 0.0001609, "INCLINATION": 98.7478, "RA_OF_ASC_NODE": 296.0691, "ARG_OF_PERICENTER": 10.7308, "MEAN_ANOMALY": 349.3903, "EPHEMERIS_TYPE": 0, "CLASSIFICATION_TYPE": "U", "NORAD_CAT_ID": 54234, "ELEMENT_SET_NO": 999, "REV_AT_EPOCH": 16196, "BSTAR": 6.5040378e-05, "MEAN_MOTION_DOT": 9.3e-07, "MEAN_MOTION_DDOT": 0}, "tle": {"line1": "1 54234U 22150A   25359.92437036  .00000093  00000+0  65040-4 0  9996", "line2": "2 54234  98.7478 296.0691 0001609  10.7308 349.3903 14.19527650161965"}}, "geometry": {"type": "Point", "coordinates": [-48.75117607011096, -59.10789544583603]}}, {"type": "Feature", "properties": {"norad_id": 54743, "name": "METEOSAT-12 (MTG-I1)", "group": "weather", "lat": 0.47004096379512705, "lon": 164.61833274733308, "alt_km": 35787.80517942739, "timestamp": "2025-12-26T04:40:05.430080+00:00", "meta": {"OBJECT_NAME": "METEOSAT-12 (MTG-I1)", "OBJECT_ID": "2022-170C", "EPOCH": "2025-12-25T19:54:47.832192", "MEAN_MOTION": 1.00270905, "ECCENTRICITY": 0.00016721, "INCLINATION": 0.7005, "RA_OF_ASC_NODE": 25.7818, "ARG_OF_PERICENTER": 241.4278, "MEAN_ANOMALY": 125.7502, "EPHEMERIS_TYPE": 0, "CLASSIFICATION_TYPE": "U", "NORAD_CAT_ID": 54743, "ELEMENT_SET_NO": 999, "REV_AT_EPOCH": 1123, "BSTAR": 0, "MEAN_MOTION_DOT": 1.4e-07, "MEAN_MOTION_DDOT": 0}, "tle": {"line1": "1 54743U 22170C   25359.82972028  .00000014  00000+0  00000+0 0  9990", "line2": "2 54743   0.7005  25.7818 0001672 241.4278 125.7502  1.00270905 11235"}}, "geometry": {"type": "Point", "coordinates": [164.61833274733308, 0.47004096379512705]}}, {"type": "Feature", "properties": {"norad_id": 55973, "name": "TIANMU-1 03", "group": "weather", "lat": -14.766282000580894, "lon": 165.21842519854982, "alt_km": 444.9643978104941, "timestamp": "2025-12-26T04:40:05.430097+00:00", "meta": {"OBJECT_NAME": "TIANMU-1 03", "OBJECT_ID": "2023-039A", "EPOCH": "2025-12-25T22:30:00.432000", "MEAN_MOTION": 15.4131006, "ECCENTRICITY": 0.00037431, "INCLINATION": 97.5115, "RA_OF_ASC_NODE": 162.961, "ARG_OF_PERICENTER": 22.2231, "MEAN_ANOMALY": 337.9177, "EPHEMERIS_TYPE": 0, "CLASSIFICATION_TYPE": "U", "NORAD_CAT_ID": 55973, "ELEMENT_SET_NO": 999, "REV_AT_EPOCH": 15409, "BSTAR": 0.00040516594, "MEAN_MOTION_DOT": 0.0001681, "MEAN_MOTION_DDOT": 0}, "tle": {"line1": "1 55973U 23039A   25359.93750500  .00016810  00000+0  40517-3 0  9994", "line2": "2 55973  97.5115 162.9610 0003743  22.2231 337.9177 15.41310060154090"}}, "geometry": {"type": "Point", "coordinates": [165.21842519854982, -14.766282000580894]}}, {"type": "Feature", "properties": {"norad_id": 55974, "name": "TIANMU-1 04", "group": "weather", "lat": 63.22067089590082, "lon": -2.4472160237980525, "alt_km": 435.6527183522521, "timestamp": "2025-12-26T04:40:05.430113+00:00", "meta": {"OBJECT_NAME": "TIANMU-1 04", "OBJECT_ID": "2023-039B", "EPOCH": "2025-12-25T23:29:41.508960", "MEAN_MOTION": 15.41654822, "ECCENTRICITY": 0.00043297, "INCLINATION": 97.5046, "RA_OF_ASC_NODE": 162.1894, "ARG_OF_PERICENTER": 15.1943, "MEAN_ANOMALY": 344.9432, "EPHEMERIS_TYPE": 0, "CLASSIFICATION_TYPE": "U", "NORAD_CAT_ID": 55974, "ELEMENT_SET_NO": 999, "REV_AT_EPOCH": 15410, "BSTAR": 0.00037311847, "MEAN_MOTION_DOT": 0.00015651, "MEAN_MOTION_DDOT": 0}, "tle": {"line1": "1 55974U 23039B   25359.97895265  .00015651  00000+0  37312-3 0  9998", "line2": "2 55974  97.5046 162.1894 0004329  15.1943 344.9432 15.41654822154103"}}, "geometry": {"type": "Point", "coordinates": [-2.4472160237980525, 63.22067089590082]}}, {"type": "Feature", "properties": {"norad_id": 55975, "name": "TIANMU-1 05", "group": "weather", "lat": 50.2375755110047, "lon": -7.974141416961826, "alt_km": 437.7254526112838, "timestamp": "2025-12-26T04:40:05.430184+00:00", "meta": {"OBJECT_NAME": "TIANMU-1 05", "OBJECT_ID": "2023-039C", "EPOCH": "2025-12-25T23:26:08.865600", "MEAN_MOTION": 15.41267256, "ECCENTRICITY": 0.0003879, "INCLINATION": 97.5093, "RA_OF_ASC_NODE": 162.6798, "ARG_OF_PERICENTER": 41.6862, "MEAN_ANOMALY": 318.4679, "EPHEMERIS_TYPE": 0, "CLASSIFICATION_TYPE": "U", "NORAD_CAT_ID": 55975, "ELEMENT_SET_NO": 999, "REV_AT_EPOCH": 15408, "BSTAR": 0.00036905812, "MEAN_MOTION_DOT": 0.0001528, "MEAN_MOTION_DDOT": 0}, "tle": {"line1": "1 55975U 23039C   25359.97649150  .00015280  00000+0  36906-3 0  9995", "line2": "2 55975  97.5093 162.6798 0003879  41.6862 318.4679 15.41267256154084"}}, "geometry": {"type": "Point", "coordinates": [-7.974141416961826, 50.2375755110047]}}, {"type": "Feature", "properties": {"norad_id": 55976, "name": "TIANMU-1 06", "group": "weather", "lat": 72.18070907317085, "lon": 7.612775580299163, "alt_km": 433.23251217279176, "timestamp": "2025-12-26T04:40:05.430203+00:00", "meta": {"OBJECT_NAME": "TIANMU-1 06", "OBJECT_ID": "2023-039D", "EPOCH": "2025-12-25T23:32:11.190048", "MEAN_MOTION": 15.41705958, "ECCENTRICITY": 0.00041314, "INCLINATION": 97.5104, "RA_OF_ASC_NODE": 163.1602, "ARG_OF_PERICENTER": 35.4344, "MEAN_ANOMALY": 324.7177, "EPHEMERIS_TYPE": 0, "CLASSIFICATION_TYPE": "U", "NORAD_CAT_ID": 55976, "ELEMENT_SET_NO": 999, "REV_AT_EPOCH": 15410, "BSTAR": 0.00037185501, "MEAN_MOTION_DOT": 0.00015624, "MEAN_MOTION_DDOT": 0}, "tle": {"line1": "1 55976U 23039D   25359.98068507  .00015624  00000+0  37186-3 0  9991", "line2": "2 55976  97.5104 163.1602 0004131  35.4344 324.7177 15.41705958154108"}}, "geometry": {"type": "Point", "coordinates": [7.612775580299163, 72.18070907317085]}}, {"type": "Feature", "properties": {"norad_id": 56232, "name": "FENGYUN 3G", "group": "weather", "lat": 14.69802900444729, "lon": -34.71015090472219, "alt_km": 410.8266893561149, "timestamp": "2025-12-26T04:40:05.430223+00:00", "meta": {"OBJECT_NAME": "FENGYUN 3G", "OBJECT_ID": "2023-055A", "EPOCH": "2025-12-25T21:47:55.428288", "MEAN_MOTION": 15.52099501, "ECCENTRICITY": 0.00039436, "INCLINATION": 49.9929, "RA_OF_ASC_NODE": 159.4919, "ARG_OF_PERICENTER": 292.4096, "MEAN_ANOMALY": 67.6453, "EPHEMERIS_TYPE": 0, "CLASSIFICATION_TYPE": "U", "NORAD_CAT_ID": 56232, "ELEMENT_SET_NO": 999, "REV_AT_EPOCH": 15307, "BSTAR": 0.00049344243, "MEAN_MOTION_DOT": 0.00030052, "MEAN_MOTION_DDOT": 0}, "tle": {"line1": "1 56232U 23055A   25359.90828042  .00030052  00000+0  49344-3 0  9996", "line2": "2 56232  49.9929 159.4919 0003943 292.4096  67.6453 15.52099501153075"}}, "geometry": {"type": "Point", "coordinates": [-34.71015090472219, 14.69802900444729]}}, {"type": "Feature", "properties": {"norad_id": 57166, "name": "METEOR-M2 3", "group": "weather", "lat": 62.67921691324969, "lon": 36.38878277085021, "alt_km": 805.9243618013697, "timestamp": "2025-12-26T04:40:05.430240+00:00", "meta": {"OBJECT_NAME": "METEOR-M2 3", "OBJECT_ID": "2023-091A", "EPOCH": "2025-12-25T23:18:35.756352", "MEAN_MOTION": 14.24027606, "ECCENTRICITY": 0.00032124, "INCLINATION": 98.6361, "RA_OF_ASC_NODE": 53.2784, "ARG_OF_PERICENTER": 327.2302, "MEAN_ANOMALY": 32.8677, "EPHEMERIS_TYPE": 0, "CLASSIFICATION_TYPE": "U", "NORAD_CAT_ID": 57166, "ELEMENT_SET_NO": 999, "REV_AT_EPOCH": 12986, "BSTAR": 1.8395914e-05, "MEAN_MOTION_DOT": -1e-08, "MEAN_MOTION_DDOT": 0}, "tle": {"line1": "1 57166U 23091A   25359.97124718 -.00000001  00000+0  18396-4 0  9995", "line2": "2 57166  98.6361  53.2784 0003212 327.2302  32.8677 14.24027606129867"}}, "geometry": {"type": "Point", "coordinates": [36.38878277085021, 62.67921691324969]}}, {"type": "Feature", "properties": {"norad_id": 57399, "name": "TIANMU-1 07", "group": "weather", "lat": -65.5233765992287, "lon": -146.57475294226188, "alt_km": 491.46573374243144, "timestamp": "2025-12-26T04:40:05.430257+00:00", "meta": {"OBJECT_NAME": "TIANMU-1 07", "OBJECT_ID": "2023-101A", "EPOCH": "2025-12-25T22:52:42.482208", "MEAN_MOTION": 15.28257746, "ECCENTRICITY": 0.00049562, "INCLINATION": 97.2856, "RA_OF_ASC_NODE": 49.5114, "ARG_OF_PERICENTER": 47.3562, "MEAN_ANOMALY": 312.8095, "EPHEMERIS_TYPE": 0, "CLASSIFICATION_TYPE": "U", "NORAD_CAT_ID": 57399, "ELEMENT_SET_NO": 999, "REV_AT_EPOCH": 13517, "BSTAR": 0.00028440293, "MEAN_MOTION_DOT": 7.76e-05, "MEAN_MOTION_DDOT": 0}, "tle": {"line1": "1 57399U 23101A   25359.95326947  .00007760  00000+0  28440-3 0  9999", "line2": "2 57399  97.2856  49.5114 0004956  47.3562 312.8095 15.28257746135179"}}, "geometry": {"type": "Point", "coordinates": [-146.57475294226188, -65.5233765992287]}}, {"type": "Feature", "properties": {"norad_id": 57400, "name": "TIANMU-1 08", "group": "weather", "lat": 66.32800329442532, "lon": 32.57764788147651, "alt_km": 470.2516841147717, "timestamp": "2025-12-26T04:40:05.430273+00:00", "meta": {"OBJECT_NAME": "TIANMU-1 08", "OBJECT_ID": "2023-101B", "EPOCH": "2025-12-25T23:39:37.016640", "MEAN_MOTION": 15.28239632, "ECCENTRICITY": 0.00068866, "INCLINATION": 97.2845, "RA_OF_ASC_NODE": 49.3389, "ARG_OF_PERICENTER": 46.1279, "MEAN_ANOMALY": 314.0528, "EPHEMERIS_TYPE": 0, "CLASSIFICATION_TYPE": "U", "NORAD_CAT_ID": 57400, "ELEMENT_SET_NO": 999, "REV_AT_EPOCH": 13517, "BSTAR": 0.00025829381, "MEAN_MOTION_DOT": 7.039e-05, "MEAN_MOTION_DDOT": 0}, "tle": {"line1": "1 57400U 23101B   25359.98584510  .00007039  00000+0  25829-3 0  9994", "line2": "2 57400  97.2845  49.3389 0006886  46.1279 314.0528 15.28239632135177"}}, "geometry": {"type": "Point", "coordinates": [32.57764788147651, 66.32800329442532]}}]}